CCSDS_OMM_VERS = 2.0
CREATION_DATE  = 
ORIGINATOR     = 

OBJECT_NAME    = CZ-2D R/B
OBJECT_ID      = 2005-024B
CENTER_NAME    = EARTH
REF_FRAME      = TEME
TIME_SYSTEM    = UTC
MEAN_ELEMENT_THEORY = SGP/SGP4

EPOCH          = 2025-11-26T11:31:44.163264
MEAN_MOTION    = 15.52091208
ECCENTRICITY   = .000772
INCLINATION    = 97.3648
RA_OF_ASC_NODE = 337.5151
ARG_OF_PERICENTER = 54.3286
MEAN_ANOMALY   = 305.8684

EPHEMERIS_TYPE = 0
CLASSIFICATION_TYPE = U
NORAD_CAT_ID   = 28738
ELEMENT_SET_NO = 999
REV_AT_EPOCH   = 12373
BSTAR          = .47599E-3
MEAN_MOTION_DOT = .28726E-3
MEAN_MOTION_DDOT = 0

CCSDS_OMM_VERS = 2.0
CREATION_DATE  = 
ORIGINATOR     = 

OBJECT_NAME    = ALOS (DAICHI)
OBJECT_ID      = 2006-002A
CENTER_NAME    = EARTH
REF_FRAME      = TEME
TIME_SYSTEM    = UTC
MEAN_ELEMENT_THEORY = SGP/SGP4

EPOCH          = 2025-11-26T10:06:18.910080
MEAN_MOTION    = 14.69411298
ECCENTRICITY   = .00007
INCLINATION    = 98.1071
RA_OF_ASC_NODE = 282.0267
ARG_OF_PERICENTER = 82.2171
MEAN_ANOMALY   = 277.9114

EPHEMERIS_TYPE = 0
CLASSIFICATION_TYPE = U
NORAD_CAT_ID   = 28931
ELEMENT_SET_NO = 999
REV_AT_EPOCH   = 5831
BSTAR          = .32903E-3
MEAN_MOTION_DOT = .1898E-4
MEAN_MOTION_DDOT = 0

CCSDS_OMM_VERS = 2.0
CREATION_DATE  = 
ORIGINATOR     = 

OBJECT_NAME    = H-2A R/B
OBJECT_ID      = 2006-002B
CENTER_NAME    = EARTH
REF_FRAME      = TEME
TIME_SYSTEM    = UTC
MEAN_ELEMENT_THEORY = SGP/SGP4

EPOCH          = 2025-11-26T07:57:59.599584
MEAN_MOTION    = 15.14082804
ECCENTRICITY   = .00544909
INCLINATION    = 98.2310
RA_OF_ASC_NODE = 103.7479
ARG_OF_PERICENTER = 232.3508
MEAN_ANOMALY   = 127.2771

EPHEMERIS_TYPE = 0
CLASSIFICATION_TYPE = U
NORAD_CAT_ID   = 28932
ELEMENT_SET_NO = 999
REV_AT_EPOCH   = 7878
BSTAR          = .5950622E-3
MEAN_MOTION_DOT = .11163E-3
MEAN_MOTION_DDOT = 0

CCSDS_OMM_VERS = 2.0
CREATION_DATE  = 
ORIGINATOR     = 

OBJECT_NAME    = RESURS-DK 1
OBJECT_ID      = 2006-021A
CENTER_NAME    = EARTH
REF_FRAME      = TEME
TIME_SYSTEM    = UTC
MEAN_ELEMENT_THEORY = SGP/SGP4

EPOCH          = 2025-11-26T11:46:35.610816
MEAN_MOTION    = 15.12019208
ECCENTRICITY   = .0007526
INCLINATION    = 69.9316
RA_OF_ASC_NODE = 143.8249
ARG_OF_PERICENTER = 270.6626
MEAN_ANOMALY   = 89.3677

EPHEMERIS_TYPE = 0
CLASSIFICATION_TYPE = U
NORAD_CAT_ID   = 29228
ELEMENT_SET_NO = 999
REV_AT_EPOCH   = 7192
BSTAR          = .21336E-3
MEAN_MOTION_DOT = .3569E-4
MEAN_MOTION_DDOT = 0

CCSDS_OMM_VERS = 2.0
CREATION_DATE  = 
ORIGINATOR     = 

OBJECT_NAME    = CZ-4B R/B
OBJECT_ID      = 2006-046C
CENTER_NAME    = EARTH
REF_FRAME      = TEME
TIME_SYSTEM    = UTC
MEAN_ELEMENT_THEORY = SGP/SGP4

EPOCH          = 2025-11-26T03:11:33.506016
MEAN_MOTION    = 15.15627162
ECCENTRICITY   = .0032648
INCLINATION    = 97.5755
RA_OF_ASC_NODE = 10.3168
ARG_OF_PERICENTER = 266.0858
MEAN_ANOMALY   = 93.6642

EPHEMERIS_TYPE = 0
CLASSIFICATION_TYPE = U
NORAD_CAT_ID   = 29507
ELEMENT_SET_NO = 999
REV_AT_EPOCH   = 4435
BSTAR          = .35925429E-3
MEAN_MOTION_DOT = .6851E-4
MEAN_MOTION_DDOT = 0

CCSDS_OMM_VERS = 2.0
CREATION_DATE  = 
ORIGINATOR     = 

OBJECT_NAME    = CZ-2C R/B
OBJECT_ID      = 2007-010B
CENTER_NAME    = EARTH
REF_FRAME      = TEME
TIME_SYSTEM    = UTC
MEAN_ELEMENT_THEORY = SGP/SGP4

EPOCH          = 2025-11-26T07:16:35.804352
MEAN_MOTION    = 14.20199479
ECCENTRICITY   = .0058151
INCLINATION    = 98.3969
RA_OF_ASC_NODE = 83.7819
ARG_OF_PERICENTER = 234.1252
MEAN_ANOMALY   = 125.4518

EPHEMERIS_TYPE = 0
CLASSIFICATION_TYPE = U
NORAD_CAT_ID   = 31114
ELEMENT_SET_NO = 999
REV_AT_EPOCH   = 96504
BSTAR          = .11241863E-3
MEAN_MOTION_DOT = .203E-5
MEAN_MOTION_DDOT = 0

CCSDS_OMM_VERS = 2.0
CREATION_DATE  = 
ORIGINATOR     = 

OBJECT_NAME    = COSMO-SKYMED 1
OBJECT_ID      = 2007-023A
CENTER_NAME    = EARTH
REF_FRAME      = TEME
TIME_SYSTEM    = UTC
MEAN_ELEMENT_THEORY = SGP/SGP4

EPOCH          = 2025-11-26T12:45:01.999296
MEAN_MOTION    = 14.95586091
ECCENTRICITY   = .0001444
INCLINATION    = 97.8845
RA_OF_ASC_NODE = 155.8258
ARG_OF_PERICENTER = 91.1449
MEAN_ANOMALY   = 268.9937

EPHEMERIS_TYPE = 0
CLASSIFICATION_TYPE = U
NORAD_CAT_ID   = 31598
ELEMENT_SET_NO = 999
REV_AT_EPOCH   = 99947
BSTAR          = .4588E-3
MEAN_MOTION_DOT = .5034E-4
MEAN_MOTION_DDOT = 0

CCSDS_OMM_VERS = 2.0
CREATION_DATE  = 
ORIGINATOR     = 

OBJECT_NAME    = COSMOS 2428
OBJECT_ID      = 2007-029A
CENTER_NAME    = EARTH
REF_FRAME      = TEME
TIME_SYSTEM    = UTC
MEAN_ELEMENT_THEORY = SGP/SGP4

EPOCH          = 2025-11-26T09:13:01.006752
MEAN_MOTION    = 14.12886628
ECCENTRICITY   = .0002761
INCLINATION    = 70.9374
RA_OF_ASC_NODE = 60.2185
ARG_OF_PERICENTER = 49.3824
MEAN_ANOMALY   = 310.7537

EPHEMERIS_TYPE = 0
CLASSIFICATION_TYPE = U
NORAD_CAT_ID   = 31792
ELEMENT_SET_NO = 999
REV_AT_EPOCH   = 94950
BSTAR          = -.23104E-4
MEAN_MOTION_DOT = -.91E-6
MEAN_MOTION_DDOT = 0

CCSDS_OMM_VERS = 2.0
CREATION_DATE  = 
ORIGINATOR     = 

OBJECT_NAME    = SL-16 R/B
OBJECT_ID      = 2007-029B
CENTER_NAME    = EARTH
REF_FRAME      = TEME
TIME_SYSTEM    = UTC
MEAN_ELEMENT_THEORY = SGP/SGP4

EPOCH          = 2025-11-26T11:19:05.750112
MEAN_MOTION    = 14.14817096
ECCENTRICITY   = .000241
INCLINATION    = 70.9779
RA_OF_ASC_NODE = 29.3544
ARG_OF_PERICENTER = 265.8145
MEAN_ANOMALY   = 105.3840

EPHEMERIS_TYPE = 0
CLASSIFICATION_TYPE = U
NORAD_CAT_ID   = 31793
ELEMENT_SET_NO = 999
REV_AT_EPOCH   = 95077
BSTAR          = .10376E-4
MEAN_MOTION_DOT = -.28E-6
MEAN_MOTION_DDOT = 0

CCSDS_OMM_VERS = 2.0
CREATION_DATE  = 
ORIGINATOR     = 

OBJECT_NAME    = KORONAS-FOTON
OBJECT_ID      = 2009-003A
CENTER_NAME    = EARTH
REF_FRAME      = TEME
TIME_SYSTEM    = UTC
MEAN_ELEMENT_THEORY = SGP/SGP4

EPOCH          = 2025-11-26T04:40:53.970240
MEAN_MOTION    = 15.40663861
ECCENTRICITY   = .00120791
INCLINATION    = 82.4323
RA_OF_ASC_NODE = 23.2409
ARG_OF_PERICENTER = 162.9621
MEAN_ANOMALY   = 197.2033

EPHEMERIS_TYPE = 0
CLASSIFICATION_TYPE = U
NORAD_CAT_ID   = 33504
ELEMENT_SET_NO = 999
REV_AT_EPOCH   = 92979
BSTAR          = .35658198E-3
MEAN_MOTION_DOT = .14617E-3
MEAN_MOTION_DDOT = 0

CCSDS_OMM_VERS = 2.0
CREATION_DATE  = 
ORIGINATOR     = 

OBJECT_NAME    = CZ-2C R/B
OBJECT_ID      = 2011-030B
CENTER_NAME    = EARTH
REF_FRAME      = TEME
TIME_SYSTEM    = UTC
MEAN_ELEMENT_THEORY = SGP/SGP4

EPOCH          = 2025-11-26T09:29:08.648736
MEAN_MOTION    = 14.80816063
ECCENTRICITY   = .0052224
INCLINATION    = 97.8393
RA_OF_ASC_NODE = 284.8668
ARG_OF_PERICENTER = 328.1186
MEAN_ANOMALY   = 190.1454

EPHEMERIS_TYPE = 0
CLASSIFICATION_TYPE = U
NORAD_CAT_ID   = 37731
ELEMENT_SET_NO = 999
REV_AT_EPOCH   = 77480
BSTAR          = .28520073E-3
MEAN_MOTION_DOT = .2197E-4
MEAN_MOTION_DDOT = 0

CCSDS_OMM_VERS = 2.0
CREATION_DATE  = 
ORIGINATOR     = 

OBJECT_NAME    = H-2A R/B
OBJECT_ID      = 2012-025E
CENTER_NAME    = EARTH
REF_FRAME      = TEME
TIME_SYSTEM    = UTC
MEAN_ELEMENT_THEORY = SGP/SGP4

EPOCH          = 2025-11-26T08:50:57.099552
MEAN_MOTION    = 14.94285988
ECCENTRICITY   = .00437435
INCLINATION    = 98.4582
RA_OF_ASC_NODE = 284.3409
ARG_OF_PERICENTER = 291.7340
MEAN_ANOMALY   = 67.9224

EPHEMERIS_TYPE = 0
CLASSIFICATION_TYPE = U
NORAD_CAT_ID   = 38341
ELEMENT_SET_NO = 999
REV_AT_EPOCH   = 73278
BSTAR          = .42820918E-3
MEAN_MOTION_DOT = .4617E-4
MEAN_MOTION_DDOT = 0

