CZ-2D R/B               
1 28738U 05024B   25330.48037226  .00028726  00000+0  47599-3 0  9995
2 28738  97.3648 337.5151 0007720  54.3286 305.8684 15.52091208123739
ALOS (DAICHI)           
1 28931U 06002A   25330.42105220  .00001898  00000+0  32903-3 0  9995
2 28931  98.1071 282.0267 0000700  82.2171 277.9114 14.69411298 58319
H-2A R/B                
1 28932U 06002B   25330.33193981  .00011163  00000+0  59506-3 0  9991
2 28932  98.2310 103.7479 0054490 232.3508 127.2771 15.14082804 78785
RESURS-DK 1             
1 29228U 06021A   25330.49068994  .00003569  00000+0  21336-3 0  9994
2 29228  69.9316 143.8249 0007526 270.6626  89.3677 15.12019208 71927
CZ-4B R/B               
1 29507U 06046C   25330.13302669  .00006851  00000+0  35925-3 0  9998
2 29507  97.5755  10.3168 0032648 266.0858  93.6642 15.15627162 44352
CZ-2C R/B               
1 31114U 07010B   25330.30319218  .00000203  00000+0  11242-3 0  9995
2 31114  98.3969  83.7819 0058151 234.1252 125.4518 14.20199479965047
COSMO-SKYMED 1          
1 31598U 07023A   25330.53127314  .00005034  00000+0  45880-3 0  9996
2 31598  97.8845 155.8258 0001444  91.1449 268.9937 14.95586091999474
COSMOS 2428             
1 31792U 07029A   25330.38403943 -.00000091  00000+0 -23104-4 0  9992
2 31792  70.9374  60.2185 0002761  49.3824 310.7537 14.12886628949501
SL-16 R/B               
1 31793U 07029B   25330.47159433 -.00000028  00000+0  10376-4 0  9991
2 31793  70.9779  29.3544 0002410 265.8145 105.3840 14.14817096950779
KORONAS-FOTON           
1 33504U 09003A   25330.19506910  .00014617  00000+0  35658-3 0  9999
2 33504  82.4323  23.2409 0012079 162.9621 197.2033 15.40663861929796
CZ-2C R/B               
1 37731U 11030B   25330.39523899  .00002197  00000+0  28520-3 0  9995
2 37731  97.8393 284.8668 0052224 328.1186 190.1454 14.80816063774805
H-2A R/B                
1 38341U 12025E   25330.36871643  .00004617  00000+0  42821-3 0  9997
2 38341  98.4582 284.3409 0043743 291.7340  67.9224 14.94285988732789
